PROBA-1                 
1 26958U 01049B   26177.96031334  .00003525  00000+0  22821-3 0  9998
2 26958  97.9603 186.8336 0056490  89.8818 270.8882 15.07539288345091
CUTE-1 (CO-55)          
1 27844U 03031E   26177.94213012  .00000288  00000+0  14336-3 0  9994
2 27844  98.6737 186.3784 0010126 150.6275 209.5475 14.24341351193069
CUBESAT XI-IV (CO-57)   
1 27848U 03031J   26177.93548419  .00000243  00000+0  12580-3 0  9999
2 27848  98.6768 186.0767 0009653 168.4758 191.6643 14.23625736192766
APRIZESAT 4             
1 35684U 09041D   26177.76487506  .00000573  00000+0  75070-4 0  9993
2 35684  98.1410 253.2762 0041952 291.1859  68.4875 14.83890559912781
APRIZESAT 3             
1 35686U 09041F   26177.92946909  .00000998  00000+0  90871-4 0  9997
2 35686  98.2076 331.6207 0062497  35.9407 324.5992 14.96270234917830
PROBA-2                 
1 36037U 09059B   26177.93781957  .00000198  00000+0  56540-4 0  9995
2 36037  98.2451   1.1554 0012008 248.6266 111.3650 14.54866357882948
APRIZESAT 5             
1 37792U 11044E   26177.80321802  .00001058  00000+0  14075-3 0  9998
2 37792  98.2452 111.1162 0051553 333.2528  26.6026 14.81095326800210
APRIZESAT 6             
1 37793U 11044F   26177.70037381  .00000741  00000+0  11153-3 0  9996
2 37793  98.2358  88.3939 0044285  56.5276   9.7041 14.76929383798557
PROBA-V                 
1 39159U 13021A   26177.88872988  .00000090  00000+0  57685-4 0  9998
2 39159  98.3589 156.0166 0005391 101.2016 258.9770 14.23599181682495
APRIZESAT 7             
1 39416U 13066A   26177.88128964  .00001252  00000+0  12903-3 0  9995
2 39416  97.7711 130.9618 0035843 176.7007 183.4455 14.91582791682672
APRIZESAT 8             
1 39425U 13066K   26177.82702916  .00000848  00000+0  97816-4 0  9991
2 39425  97.8223 125.1607 0044388 253.7390 105.8941 14.87668628681104
BUGSAT-1 (TITA)         
1 40014U 14033E   26177.93932494  .00006478  00000+0  34067-3 0  9993
2 40014  98.0428 271.0586 0028668 145.6578 214.6513 15.15689035657314
SAUDISAT 4              
1 40016U 14033G   26177.92509677  .00000598  00000+0  85330-4 0  9994
2 40016  97.7593 323.7234 0045724  43.1569 317.3212 14.79556302647511
APRIZESAT 9             
1 40018U 14033J   26177.91360181  .00000748  00000+0  11705-3 0  9991
2 40018  97.9071 310.8750 0066459 167.8702 192.4126 14.74227829644996
APRIZESAT 10            
1 40019U 14033K   26177.92259169  .00000504  00000+0  87083-4 0  9999
2 40019  97.9660 304.6655 0077563 242.2115 117.1213 14.70891363643682
TECHDEMOSAT-1 (TDS-1)   
1 40076U 14037H   26177.94416407  .00008509  00000+0  48022-3 0  9990
2 40076  98.3811 171.1246 0005123 222.5193 137.5639 15.13430497649703
TECHNOSAT               
1 42829U 17042E   26177.95645130  .00003079  00000+0  22021-3 0  9993
2 42829  97.4292 335.2436 0019251  63.8672 296.4533 15.05017424488175
FLYING LAPTOP           
1 42831U 17042G   26177.98401516  .00004711  00000+0  36995-3 0  9996
2 42831  97.4721 333.1427 0019961  90.2626 270.0886 15.01208360487921
HAWK-A                  
1 43765U 18099H   26177.86433630  .00006681  00000+0  26853-3 0  9995
2 43765  97.3913 229.9742 0033204 250.0102 109.7559 15.24750602414575
HAWK-B                  
1 43794U 18099AN  26177.89742326  .00006331  00000+0  26953-3 0  9998
2 43794  97.3963 229.4014 0030227 268.9039  90.8734 15.22924130414514
HAWK-C                  
1 43799U 18099AT  26177.88440727  .00008227  00000+0  29520-3 0  9991
2 43799  97.3889 230.9540 0038812 249.8988 109.8073 15.28232532415394
SALSAT                  
1 46495U 20068K   26177.95657953  .00008212  00000+0  28601-3 0  9998
2 46495  97.8848 181.6168 0007822 266.2984  93.7361 15.29932421316851
HAWK-2C                 
1 47502U 21006CT  26177.54124856  .00006831  00000+0  20479-3 0  9997
2 47502  97.2278 221.6646 0007694 154.8081 205.3539 15.34770530300932
HAWK-2A                 
1 47505U 21006CW  26177.08726285  .00007331  00000+0  21958-3 0  9992
2 47505  97.2322 221.9027 0007110 159.0181 201.1356 15.34779347300860
HAWK-2B                 
1 47508U 21006CZ  26177.86458056  .00007971  00000+0  23765-3 0  9997
2 47508  97.2188 220.9810 0007771 155.4629 204.6987 15.34893530300984
HAWK-3B                 
1 48931U 21059BE  26177.82134538  .00045585  00000+0  37383-3 0  9992
2 48931  97.6652  15.4460 0003151 279.8355  80.2551 15.70362908279360
HAWK-3C                 
1 48948U 21059BX  26177.82101941  .00045255  00000+0  37107-3 0  9990
2 48948  97.6772  21.1485 0003383 281.4362  78.6519 15.70367385279365
HAWK-3A                 
1 48957U 21059CG  26177.82087984  .00044569  00000+0  36566-3 0  9995
2 48957  97.6715  18.3454 0003337 283.5660  76.5229 15.70356257279360
HAWK-5C                 
1 52754U 22057Y   26177.91170123  .00020027  00000+0  33744-3 0  9990
2 52754  97.6604 338.2083 0004298  51.5557 308.6080 15.51723757227857
HAWK-5B                 
1 52756U 22057AA  26177.91153688  .00020179  00000+0  33991-3 0  9991
2 52756  97.6612 336.5582 0004946  43.7343 316.4300 15.51726711227854
